COSMOS 1823 DEB         
1 18806U 87020AS  23084.70351251  .00000328  00000+0  27219-2 0  9996
2 18806  73.4813 309.2252 0090149 197.2057 224.7219 12.35085298587132
COSMOS 1823 DEB         
1 18807U 87020AT  23084.93722562  .00037954  00000+0  33664-1 0  9994
2 18807  73.7485 294.2341 0228764 139.9227 332.6333 13.73460134334316
SL-12 DEB               
1 18819U 85042L   23085.18934927  .00091173  00000+0  49713-2 0  9993
2 18819  66.5539 237.7030 0015457 315.3331 217.0560 15.13742489854794
METEOR 2-17             
1 18820U 88005A   23084.81143736  .00000143  00000+0  11238-3 0  9995
2 18820  82.5463 183.2344 0017320 154.0403 323.2528 13.85485207776866
SL-14 R/B               
1 18821U 88005B   23084.77429980  .00000076  00000+0  54235-4 0  9999
2 18821  82.5466 184.4902 0014773 164.6908 195.4703 13.85144875776754
DMSP 5D-2 F9 (USA 29)   
1 18822U 88006A   23084.83655355  .00000568  00000+0  24741-3 0  9999
2 18822  98.3428 289.1115 0005566 319.6120  40.4648 14.27589029827963
COSMOS 375 DEB          
1 18866U 70091AV  23079.51490729  .00002132  00000+0  81619-3 0  9999
2 18866  62.6807 158.0683 0758555 303.3624  49.6982 13.34991269556312
DELTA 1 DEB             
1 18870U 73086HA  23085.07904127  .00000371  00000+0  45827-2 0  9994
2 18870 101.7537 127.4574 0345295  22.4729 339.1035 11.94223772334332
SAKURA-3A (CS-3A)       
1 18877U 88012A   23082.99007672 -.00000151  00000+0  00000+0 0  9991
2 18877  15.4970   0.5325 0006276 333.4142 223.3436  0.98136612116079
COSMOS 1922             
1 18881U 88013A   23084.08788545 -.00000245  00000+0  00000+0 0  9998
2 18881  68.7784 135.9916 5304765  71.7452 337.4469  2.00315638256869
SL-6 R/B(2)             
1 18883U 88013C   23084.52731259  .00000057  00000+0  00000+0 0  9999
2 18883  67.8347  31.8992 6252275  46.8676  60.2675  2.04046868261208
COSMOS 1275 DEB         
1 18902U 81053MB  23084.29862495  .00010007  00000+0  38150-2 0  9995
2 18902  82.9619 197.8339 0012006 296.0471  63.9480 14.30705443495149
LEASAT 1 DEB            
1 18904U 84113F   23084.11020500  .00074077  00000+0  12662-1 0  9997
2 18904  26.6274 345.1444 3980042  78.1642 322.8517  7.36736766272448
DELTA 1 DEB             
1 18906U 73086HB  23085.22078914 -.00000036  00000+0  75267-4 0  9999
2 18906 102.3441 257.5053 0089087 166.8931   6.2770 12.55884047624372
COSMOS 886 DEB          
1 18907U 76126BY  23084.38636922  .00008296  00000+0  19339-2 0  9994
2 18907  65.8167 226.7461 0899984 208.2815 146.6451 13.24135745691122
THOR ABLESTAR DEB       
1 18908U 61015LY  23084.24311880  .00016952  00000+0  30204-2 0  9996
2 18908  65.7259  25.3455 0111803 246.3058 112.6286 14.63115719864684
COSMOS 1823 DEB         
1 18910U 87020AU  23084.80087608  .00000306  00000+0  21777-2 0  9994
2 18910  73.6738 102.4899 0022155 226.4867 307.1238 12.48101319603629
STTW-2                  
1 18922U 88014A   23084.88214424 -.00000090  00000+0  00000+0 0  9991
2 18922  14.2140 348.5081 0008288 121.4584 103.6677  1.00240494128281
COSMOS 1924             
1 18937U 88016A   23084.88957023 -.00000014  00000+0  10271-4 0  9990
2 18937  74.0030 242.6807 0034578 348.5602 126.3716 12.44595259592185
COSMOS 1925             
1 18938U 88016B   23084.95935426  .00000013  00000+0  19662-3 0  9992
2 18938  74.0064 172.3490 0024668 284.6887 251.0389 12.46821523594793
COSMOS 1926             
1 18939U 88016C   23084.83248209 -.00000019  00000+0 -17267-4 0  9994
2 18939  74.0019 109.0528 0012715 210.3218 322.3638 12.48828991597405
COSMOS 1927             
1 18940U 88016D   23085.34590300  .00000001  00000+0  10992-3 0  9991
2 18940  74.0070  43.1014 0008108 206.9288 265.7603 12.50891283600281
COSMOS 1928             
1 18941U 88016E   23085.41333428  .00000007  00000+0  14473-3 0  9990
2 18941  74.0084 340.1420 0011234 202.5791 274.2175 12.52863750602813
COSMOS 1929             
1 18942U 88016F   23084.90766676 -.00000015  00000+0  84373-5 0  9997
2 18942  74.0023 279.8509 0020105 147.5860 320.3704 12.54777646604964
COSMOS 1930             
1 18943U 88016G   23084.74081867 -.00000002  00000+0  85555-4 0  9990
2 18943  74.0049 221.3381 0028957  91.5160  17.9600 12.56609583607274
COSMOS 1931             
1 18944U 88016H   23085.51372969  .00000010  00000+0  15612-3 0  9997
2 18944  74.0060 158.3190 0040150  10.9299 100.5104 12.58539695610070
SL-8 R/B                
1 18945U 88016J   23085.52614584  .00000009  00000+0  21124-3 0  9994
2 18945  74.0087 163.3430 0140328 340.9857 124.4347 12.24011071565931
MOLNIYA 1-71            
1 18946U 88017A   23084.05749366  .00000273  00000+0  00000+0 0  9999
2 18946  63.3226  85.4266 7294083 256.4012  19.9182  2.00605505256686
SL-6 R/B(2)             
1 18949U 88017D   23084.81104295 -.00000600  00000+0  74090-3 0  9991
2 18949  63.6944  14.7952 7249878 254.5089  21.2683  2.10114790248338
SPACENET 3R             
1 18951U 88018A   23084.41560208  .00000017  00000+0  00000+0 0  9998
2 18951  14.4922   8.5014 0001589   5.3552 202.3810  0.99657381112850
TELECOM 1C              
1 18952U 88018B   23084.54554711 -.00000349  00000+0  00000+0 0  9994
2 18952  15.5034 358.0580 0101976 123.6393  40.0093  0.97958622103890
ARIANE 3 R/B            
1 18953U 88018C   23084.46961149  .00000275  00000+0  10303-2 0  9990
2 18953   7.1970  37.6499 7122858 247.6276  26.7112  2.40434320296757
COSMOS 1932             
1 18957U 88019A   23084.89233368 -.00000040  00000+0  45297-4 0  9990
2 18957  65.0428 280.8483 0060640 271.0785  88.3326 13.79716316766447
COSMOS 1933             
1 18958U 88020A   23084.85025574  .00005749  00000+0  39117-3 0  9990
2 18958  82.5281 228.0063 0009681 312.0439  47.9963 15.06107406887131
SL-14 R/B               
1 18959U 88020B   23084.53762252  .00000980  00000+0  11496-3 0  9999
2 18959  82.5339 101.3289 0017452  31.0457 329.1786 14.83872116871921
IRS-1A                  
1 18960U 88021A   23085.20598545  .00000402  00000+0  31974-3 0  9991
2 18960  99.0039 157.2655 0013746 213.0486 207.2838 13.96883034688830
SL-3 R/B                
1 18961U 88021B   23084.90372913  .00000436  00000+0  31841-3 0  9997
2 18961  99.0932 143.5739 0054027 195.7430 337.3763 14.00795510790479
WESTFORD NEEDLES        
1 18962U 63014DN  23081.04965358 -.00000059  00000+0 -83458-2 0  9999
2 18962  86.5353 311.9203 1543629 121.6711 254.4025  8.77331685 98834
OPS 4682 DEB            
1 18964U 65027AM  23085.16698924  .00000475  00000+0  16252-2 0  9994
2 18964  90.2707 332.7903 0032391 330.6737 185.5769 12.96763938702597
OPS 4682 DEB            
1 18965U 65027AN  23085.55713059  .00001126  00000+0  37873-2 0  9991
2 18965  90.2596 357.7876 0047789 314.9063 167.4113 12.98352974797844
OPS 4682 DEB            
1 18967U 65027AP  23084.95948399  .00000236  00000+0  80904-3 0  9998
2 18967  90.2577 343.9465 0028644   5.8556   6.2265 12.95469037665600
COSMOS 1823 DEB         
1 18969U 87020AW  23085.40923389  .00000194  00000+0  15126-2 0  9996
2 18969  73.6219 187.0146 0035842  75.4531 354.2401 12.43235580597998
COSMOS 1934             
1 18985U 88023A   23085.54615115  .00000088  00000+0  73582-4 0  9992
2 18985  82.9548 308.8530 0041082 184.3314 175.7493 13.76511276634104
SL-8 R/B                
1 18986U 88023B   23084.88695835  .00000242  00000+0  22181-3 0  9996
2 18986  82.9498 275.3948 0042818  61.4032 299.1423 13.78717006760778
COSMOS 970 DEB          
1 18998U 77121BS  23084.01506801  .00000850  00000+0  89875-3 0  9993
2 18998  65.8248  93.1026 0134263 337.9875  51.5050 13.75878587778199
DELTA 1 DEB             
1 19000U 76077FH  23084.40182630 -.00000036  00000+0  89359-4 0  9995
2 19000 102.4496  54.2141 0078283 246.8695 267.3640 12.26731942582250
COSMOS 1823 DEB         
1 19005U 87020BA  23084.72954752  .00000164  00000+0  12971-2 0  9992
2 19005  73.8701  71.6476 0030497  83.7823  90.2553 12.43065557598923
COSMOS 1823 DEB         
1 19006U 87020BB  23084.93443127  .00038889  00000+0  34219-1 0  9998
2 19006  73.4415 291.3112 0069423  88.9905  35.5621 13.83966378681555
DELTA 1 DEB             
1 19008U 84088G   23080.92326712  .00001910  00000+0  10817-2 0  9990
2 19008  28.7445 322.3200 1817869 322.7203  25.9738 11.15706738436805
GORIZONT 15             
1 19017U 88028A   23084.60604885 -.00000150  00000+0  00000+0 0  9993
2 19017  14.1722 339.4713 0036746 160.9697  24.7821  0.97828906107967
SL-12 R/B(2)            
1 19020U 88028D   23084.90024417 -.00000081  00000+0  00000+0 0  9990
2 19020  14.1914 339.2134 0023891 104.0597 164.0442  0.97783330124938
COSMOS 397 DEB          
1 19024U 71015DN  23080.14386918  .00000830  00000+0  10333-2 0  9995
2 19024  66.2760 222.6052 0513894 294.0449 246.4484 13.24234933688789
COSMOS 1275 DEB         
1 19025U 81053MC  23084.82881197  .00007177  00000+0  35806-2 0  9990
2 19025  82.7139  16.6408 0029708  99.9869 260.4665 14.16514572935439
COSMOS 1275 DEB         
1 19026U 81053MD  23082.28122715  .00002293  00000+0  23031-2 0  9994
2 19026  83.1638 271.5177 0119783 181.2368 354.0770 13.74059780889125
COSMOS 1275 DEB         
1 19027U 81053ME  23084.92516094  .00007749  00000+0  47986-2 0  9991
2 19027  83.0117  68.0184 0077191  58.7070 330.5885 14.03599877915561
WESTFORD NEEDLES        
1 19030U 63014DY  23073.19704162  .00000274  00000+0  12824+0 0  9990
2 19030  87.3957 343.3978 0055232 199.5153 160.3585  8.64445888286033
DELTA 1 DEB             
1 19033U 73086HC  23085.47747813  .00000535  00000+0  36896-2 0  9995
2 19033 101.8936  73.6281 0037427 218.9833 293.1867 12.52416755736145
COSMOS 1937             
1 19038U 88029A   23085.18093501  .00000320  00000+0  12029-3 0  9994
2 19038  74.0436 107.0021 0023092 124.9196 302.4723 14.35397690830825
SL-8 R/B                
1 19039U 88029B   23085.14739475  .00000807  00000+0  27015-3 0  9999
2 19039  74.0503  16.8445 0022921  24.7705 335.4544 14.38788789833951
SL-3 R/B                
1 19046U 88032B   23085.21944118  .00005689  00000+0  39488-3 0  9991
2 19046  97.4126  77.2297 0035297   1.0625 359.0671 15.05445074889264
